STARLINK-31737          
1 59537U 24074D   25206.00402331 -.00000837  00000+0 -20912-4 0  9991
2 59537  43.0018 189.3002 0001109 277.3044  82.7682 15.27567424 71192
STARLINK-31725          
1 59538U 24074E   25206.79391963 -.00000924  00000+0 -24055-4 0  9995
2 59538  43.0008 174.2394 0001047 272.3748  87.6984 15.27574790 71436
STARLINK-31539          
1 59539U 24074F   25206.01558198 -.00000387  00000+0 -45510-5 0  9999
2 59539  43.0029 189.3860 0001537 269.8939  90.1736 15.27573697 71194
STARLINK-31397          
1 59540U 24074G   25207.14128720  .00001064  00000+0  48173-4 0  9998
2 59540  42.9997 183.2062 0001189 258.4655 101.6063 15.27576678 72539
STARLINK-31481          
1 59541U 24074H   25206.95655467 -.00002541  00000+0 -82888-4 0  9994
2 59541  43.0021 183.5432 0001142 263.2956  96.7766 15.27569710 72512
STARLINK-31540          
1 59542U 24074J   25206.32067020  .00008900  00000+0  33274-3 0  9995
2 59542  43.0015 187.3723 0001011 300.2939  59.7812 15.27562405 71243
STARLINK-31574          
1 59543U 24074K   25206.21560143 -.00000149  00000+0  41117-5 0  9993
2 59543  43.0018 188.3011 0001563 277.4535  82.6139 15.27572594 71222
STARLINK-31556          
1 59544U 24074L   25206.34893903 -.00000202  00000+0  22024-5 0  9997
2 59544  43.0019 187.5851 0001346 257.7442 102.3259 15.27576156 71247
STARLINK-31582          
1 59545U 24074M   25206.22973053  .00000121  00000+0  13919-4 0  9991
2 59545  43.0003 188.4050 0001355 270.7386  89.3311 15.27577511 72390
STARLINK-31519          
1 59546U 24074N   25206.37449593 -.00000127  00000+0  49081-5 0  9992
2 59546  43.0001 186.9139 0000995 275.2873  84.7865 15.27573672 71251
STARLINK-31736          
1 59547U 24074P   25207.18451627 -.00000352  00000+0 -32709-5 0  9994
2 59547  43.0014 175.7457 0001040 274.3080  85.7652 15.27571019 72537
STARLINK-31675          
1 59548U 24074Q   25207.04377969 -.00000763  00000+0 -18217-4 0  9999
2 59548  43.0018 183.3372 0000857 273.4405  86.6349 15.27573657 72521
STARLINK-31722          
1 59549U 24074R   25206.43603276  .00001079  00000+0  48725-4 0  9991
2 59549  43.0012 186.5162 0001066 278.2756  81.7974 15.27580239 71267
STARLINK-31741          
1 59550U 24074S   25206.44374330 -.00001449  00000+0 -43174-4 0  9996
2 59550  43.0008 186.5730 0000718 273.4571  86.6199 15.27566196 71269
STARLINK-31699          
1 59551U 24074T   25206.00016467 -.00001202  00000+0 -34167-4 0  9992
2 59551  43.0001 189.2609 0000739 266.6638  93.4129 15.27574109 71193
STARLINK-31750          
1 59552U 24074U   25206.92713989 -.00000521  00000+0 -94247-5 0  9996
2 59552  43.0019 184.1838 0001179 260.0483 100.0236 15.27575736 71333
STARLINK-31723          
1 59553U 24074V   25206.00788364 -.00000931  00000+0 -24331-4 0  9996
2 59553  43.0030 189.3258 0001256 277.4005  82.6704 15.27567323 71190
STARLINK-31724          
1 59554U 24074W   25207.18685482 -.00000026  00000+0  85603-5 0  9998
2 59554  43.0002 146.6500 0000915 247.0379 113.0376 15.27581647 72857
STARLINK-31730          
1 59555U 24074X   25206.29897381 -.00000934  00000+0 -24429-4 0  9990
2 59555  42.9999 188.0632 0001066 267.6480  92.4250 15.27572822 71233
STARLINK-31718          
1 59556U 24074Y   25206.35279957 -.00001096  00000+0 -30293-4 0  9997
2 59556  43.0020 187.6095 0001737 283.9945  76.0713 15.27574372 71246
STARLINK-31747          
1 59564U 24076A   25207.05103059  .00000103  00000+0  13280-4 0  9998
2 59564  43.0015 198.3505 0001599 283.1904  76.8770 15.27570429 71955
STARLINK-31388          
1 59565U 24076B   25206.29834931 -.00000195  00000+0  24362-5 0  9990
2 59565  43.0007 213.4159 0001497 275.3182  84.7498 15.27572019 71726
STARLINK-31332          
1 59566U 24076C   25207.04959036  .00023419  00000+0  86085-3 0  9990
2 59566  43.0018 208.7141 0000263 321.7959  38.2874 15.27464928 71849
STARLINK-31689          
1 59567U 24076D   25206.35779030 -.00002505  00000+0 -81567-4 0  9994
2 59567  43.0010 209.5281 0001458 264.1256  95.9429 15.27570519 71775
STARLINK-31471          
1 59568U 24076E   25206.28677810 -.00000261  00000+0  29572-7 0  9997
2 59568  43.0014 213.3126 0001455 254.6059 105.4632 15.27575656 71559
STARLINK-31470          
1 59569U 24076F   25206.28598235  .00000074  00000+0  12229-4 0  9990
2 59569  43.0002 209.8479 0001413 268.8595  91.2094 15.27570135 71678
STARLINK-31587          
1 59570U 24076G   25206.29449649 -.00001339  00000+0 -39147-4 0  9992
2 59570  43.0003 213.3696 0001528 272.0184  88.0492 15.27568045 71741
STARLINK-31606          
1 59571U 24076H   25206.75002315 -.00022081  00000+0 -79559-3 0  9996
2 59571  42.9992 210.2199 0001256 290.3824 298.3309 15.27566451  5887
STARLINK-31666          
1 59572U 24076J   25206.28003676 -.00000801  00000+0 -19599-4 0  9991
2 59572  43.0007 206.3156 0001476 268.6128  91.4555 15.27571934 71807
STARLINK-31683          
1 59573U 24076K   25207.05727611 -.00000997  00000+0 -26714-4 0  9993
2 59573  43.0021 208.7670 0001123 271.8435  88.2288 15.27577748 71847
