OBJECT_NAME,OBJECT_ID,EPOCH,MEAN_MOTION,ECCENTRICITY,INCLINATION,RA_OF_ASC_NODE,ARG_OF_PERICENTER,MEAN_ANOMALY,EPHEMERIS_TYPE,CLASSIFICATION_TYPE,NORAD_CAT_ID,ELEMENT_SET_NO,REV_AT_EPOCH,BSTAR,MEAN_MOTION_DOT,MEAN_MOTION_DDOT
STARLINK-31737,2024-074D,2025-07-25T00:05:47.613984,15.27567424,.0001109,43.0018,189.3002,277.3044,82.7682,0,U,59537,999,7119,-.20912E-4,-.837E-5,0
STARLINK-31725,2024-074E,2025-07-25T19:03:14.656032,15.27574790,.0001047,43.0008,174.2394,272.3748,87.6984,0,U,59538,999,7143,-.24055E-4,-.924E-5,0
STARLINK-31539,2024-074F,2025-07-25T00:22:26.283072,15.27573697,.0001537,43.0029,189.3860,269.8939,90.1736,0,U,59539,999,7119,-.4551E-5,-.387E-5,0
STARLINK-31397,2024-074G,2025-07-26T03:23:27.214080,15.27576678,.0001189,42.9997,183.2062,258.4655,101.6063,0,U,59540,999,7253,.48173E-4,.1064E-4,0
STARLINK-31481,2024-074H,2025-07-25T22:57:26.323488,15.27569710,.0001142,43.0021,183.5432,263.2956,96.7766,0,U,59541,999,7251,-.82888E-4,-.2541E-4,0
STARLINK-31540,2024-074J,2025-07-25T07:41:45.905280,15.27562405,.0001011,43.0015,187.3723,300.2939,59.7812,0,U,59542,999,7124,.33274E-3,.89E-4,0
STARLINK-31574,2024-074K,2025-07-25T05:10:27.963552,15.27572594,.0001563,43.0018,188.3011,277.4535,82.6139,0,U,59543,999,7122,.41117E-5,-.149E-5,0
STARLINK-31556,2024-074L,2025-07-25T08:22:28.332192,15.27576156,.0001346,43.0019,187.5851,257.7442,102.3259,0,U,59544,999,7124,.22024E-5,-.202E-5,0
STARLINK-31582,2024-074M,2025-07-25T05:30:48.717792,15.27577511,.0001355,43.0003,188.4050,270.7386,89.3311,0,U,59545,999,7239,.13919E-4,.121E-5,0
STARLINK-31519,2024-074N,2025-07-25T08:59:16.448352,15.27573672,.0000995,43.0001,186.9139,275.2873,84.7865,0,U,59546,999,7125,.49081E-5,-.127E-5,0
STARLINK-31736,2024-074P,2025-07-26T04:25:42.205728,15.27571019,.000104,43.0014,175.7457,274.3080,85.7652,0,U,59547,999,7253,-.32709E-5,-.352E-5,0
STARLINK-31675,2024-074Q,2025-07-26T01:03:02.565216,15.27573657,.0000857,43.0018,183.3372,273.4405,86.6349,0,U,59548,999,7252,-.18217E-4,-.763E-5,0
STARLINK-31722,2024-074R,2025-07-25T10:27:53.230464,15.27580239,.0001066,43.0012,186.5162,278.2756,81.7974,0,U,59549,999,7126,.48725E-4,.1079E-4,0
STARLINK-31741,2024-074S,2025-07-25T10:38:59.421120,15.27566196,.0000718,43.0008,186.5730,273.4571,86.6199,0,U,59550,999,7126,-.43174E-4,-.1449E-4,0
STARLINK-31699,2024-074T,2025-07-25T00:00:14.227488,15.27574109,.0000739,43.0001,189.2609,266.6638,93.4129,0,U,59551,999,7119,-.34167E-4,-.1202E-4,0
STARLINK-31750,2024-074U,2025-07-25T22:15:04.886496,15.27575736,.0001179,43.0019,184.1838,260.0483,100.0236,0,U,59552,999,7133,-.94247E-5,-.521E-5,0
STARLINK-31723,2024-074V,2025-07-25T00:11:21.146496,15.27567323,.0001256,43.0030,189.3258,277.4005,82.6704,0,U,59553,999,7119,-.24331E-4,-.931E-5,0
STARLINK-31724,2024-074W,2025-07-26T04:29:04.256448,15.27581647,.0000915,43.0002,146.6500,247.0379,113.0376,0,U,59554,999,7285,.85603E-5,-.26E-6,0
STARLINK-31730,2024-074X,2025-07-25T07:10:31.337184,15.27572822,.0001066,42.9999,188.0632,267.6480,92.4250,0,U,59555,999,7123,-.24429E-4,-.934E-5,0
STARLINK-31718,2024-074Y,2025-07-25T08:28:01.882848,15.27574372,.0001737,43.0020,187.6095,283.9945,76.0713,0,U,59556,999,7124,-.30293E-4,-.1096E-4,0
STARLINK-31747,2024-076A,2025-07-26T01:13:29.042976,15.27570429,.0001599,43.0015,198.3505,283.1904,76.8770,0,U,59564,999,7195,.1328E-4,.103E-5,0
STARLINK-31388,2024-076B,2025-07-25T07:09:37.380384,15.27572019,.0001497,43.0007,213.4159,275.3182,84.7498,0,U,59565,999,7172,.24362E-5,-.195E-5,0
STARLINK-31332,2024-076C,2025-07-26T01:11:24.607104,15.27464928,.0000263,43.0018,208.7141,321.7959,38.2874,0,U,59566,999,7184,.86085E-3,.23419E-3,0
STARLINK-31689,2024-076D,2025-07-25T08:35:13.081920,15.27570519,.0001458,43.0010,209.5281,264.1256,95.9429,0,U,59567,999,7177,-.81567E-4,-.2505E-4,0
STARLINK-31471,2024-076E,2025-07-25T06:52:57.627840,15.27575656,.0001455,43.0014,213.3126,254.6059,105.4632,0,U,59568,999,7155,.29572E-7,-.261E-5,0
STARLINK-31470,2024-076F,2025-07-25T06:51:48.875040,15.27570135,.0001413,43.0002,209.8479,268.8595,91.2094,0,U,59569,999,7167,.12229E-4,.74E-6,0
STARLINK-31587,2024-076G,2025-07-25T07:04:04.496736,15.27568045,.0001528,43.0003,213.3696,272.0184,88.0492,0,U,59570,999,7174,-.39147E-4,-.1339E-4,0
STARLINK-31606,2024-076H,2025-07-25T18:00:02.000160,15.27566451,.0001256,42.9992,210.2199,290.3824,298.3309,0,U,59571,999,588,-.79559E-3,-.22081E-3,0
STARLINK-31666,2024-076J,2025-07-25T06:43:15.176064,15.27571934,.0001476,43.0007,206.3156,268.6128,91.4555,0,U,59572,999,7180,-.19599E-4,-.801E-5,0
STARLINK-31683,2024-076K,2025-07-26T01:22:28.655904,15.27577748,.0001123,43.0021,208.7670,271.8435,88.2288,0,U,59573,999,7184,-.26714E-4,-.997E-5,0
